[
  {
    "OBJECT_NAME": "STARLINK-30857",
    "OBJECT_ID": "2023-200G",
    "EPOCH": "2025-05-23T20:39:10.471104",
    "MEAN_MOTION": 15.02533473,
    "ECCENTRICITY": 0.0001404,
    "INCLINATION": 43.0042,
    "RA_OF_ASC_NODE": 305.3486,
    "ARG_OF_PERICENTER": 267.7239,
    "MEAN_ANOMALY": 92.3442,
    "EPHEMERIS_TYPE": 0,
    "CLASSIFICATION_TYPE": "U",
    "NORAD_CAT_ID": 58595,
    "ELEMENT_SET_NO": 999,
    "REV_AT_EPOCH": 7999,
    "BSTAR": 6.3798e-05,
    "MEAN_MOTION_DOT": 6.58e-06,
    "MEAN_MOTION_DDOT": 0
  },
  {
    "OBJECT_NAME": "STARLINK-31059",
    "OBJECT_ID": "2023-200H",
    "EPOCH": "2025-05-24T10:29:22.212096",
    "MEAN_MOTION": 15.27581395,
    "ECCENTRICITY": 0.0001197,
    "INCLINATION": 42.9997,
    "RA_OF_ASC_NODE": 205.6748,
    "ARG_OF_PERICENTER": 258.8642,
    "MEAN_ANOMALY": 101.2075,
    "EPHEMERIS_TYPE": 0,
    "CLASSIFICATION_TYPE": "U",
    "NORAD_CAT_ID": 58596,
    "ELEMENT_SET_NO": 999,
    "REV_AT_EPOCH": 8121,
    "BSTAR": 8.6493e-05,
    "MEAN_MOTION_DOT": 2.119e-05,
    "MEAN_MOTION_DDOT": 0
  },
  {
    "OBJECT_NAME": "STARLINK-31087",
    "OBJECT_ID": "2023-200J",
    "EPOCH": "2025-05-24T10:51:08.266464",
    "MEAN_MOTION": 15.0253192,
    "ECCENTRICITY": 0.0001123,
    "INCLINATION": 43.0036,
    "RA_OF_ASC_NODE": 302.0442,
    "ARG_OF_PERICENTER": 263.5037,
    "MEAN_ANOMALY": 96.5678,
    "EPHEMERIS_TYPE": 0,
    "CLASSIFICATION_TYPE": "U",
    "NORAD_CAT_ID": 58597,
    "ELEMENT_SET_NO": 999,
    "REV_AT_EPOCH": 7997,
    "BSTAR": 2.8509e-05,
    "MEAN_MOTION_DOT": 1.82e-06,
    "MEAN_MOTION_DDOT": 0
  },
  {
    "OBJECT_NAME": "STARLINK-31079",
    "OBJECT_ID": "2023-200K",
    "EPOCH": "2025-05-24T18:39:31.537440",
    "MEAN_MOTION": 15.03141884,
    "ECCENTRICITY": 0.000213,
    "INCLINATION": 43.0019,
    "RA_OF_ASC_NODE": 300.1843,
    "ARG_OF_PERICENTER": 254.9311,
    "MEAN_ANOMALY": 105.1296,
    "EPHEMERIS_TYPE": 0,
    "CLASSIFICATION_TYPE": "U",
    "NORAD_CAT_ID": 58598,
    "ELEMENT_SET_NO": 999,
    "REV_AT_EPOCH": 8016,
    "BSTAR": 0.0006496,
    "MEAN_MOTION_DOT": 8.724e-05,
    "MEAN_MOTION_DDOT": 0
  },
  {
    "OBJECT_NAME": "STARLINK-31052",
    "OBJECT_ID": "2023-200M",
    "EPOCH": "2025-05-24T10:41:32.605728",
    "MEAN_MOTION": 15.02536202,
    "ECCENTRICITY": 0.0001447,
    "INCLINATION": 43.0034,
    "RA_OF_ASC_NODE": 301.9933,
    "ARG_OF_PERICENTER": 244.4426,
    "MEAN_ANOMALY": 115.6266,
    "EPHEMERIS_TYPE": 0,
    "CLASSIFICATION_TYPE": "U",
    "NORAD_CAT_ID": 58600,
    "ELEMENT_SET_NO": 999,
    "REV_AT_EPOCH": 8008,
    "BSTAR": 9.7681e-05,
    "MEAN_MOTION_DOT": 1.116e-05,
    "MEAN_MOTION_DDOT": 0
  },
  {
    "OBJECT_NAME": "STARLINK-31074",
    "OBJECT_ID": "2023-200N",
    "EPOCH": "2025-05-23T20:15:12.188448",
    "MEAN_MOTION": 15.02533875,
    "ECCENTRICITY": 0.0001408,
    "INCLINATION": 43.0051,
    "RA_OF_ASC_NODE": 305.2232,
    "ARG_OF_PERICENTER": 271.0539,
    "MEAN_ANOMALY": 89.0142,
    "EPHEMERIS_TYPE": 0,
    "CLASSIFICATION_TYPE": "U",
    "NORAD_CAT_ID": 58601,
    "ELEMENT_SET_NO": 999,
    "REV_AT_EPOCH": 7999,
    "BSTAR": 5.2145e-05,
    "MEAN_MOTION_DOT": 5.01e-06,
    "MEAN_MOTION_DDOT": 0
  },
  {
    "OBJECT_NAME": "STARLINK-31071",
    "OBJECT_ID": "2023-200P",
    "EPOCH": "2025-05-24T20:16:17.806656",
    "MEAN_MOTION": 15.25920586,
    "ECCENTRICITY": 0.0001279,
    "INCLINATION": 43.0011,
    "RA_OF_ASC_NODE": 199.1922,
    "ARG_OF_PERICENTER": 271.8087,
    "MEAN_ANOMALY": 88.2617,
    "EPHEMERIS_TYPE": 0,
    "CLASSIFICATION_TYPE": "U",
    "NORAD_CAT_ID": 58602,
    "ELEMENT_SET_NO": 999,
    "REV_AT_EPOCH": 8123,
    "BSTAR": -7.7444e-05,
    "MEAN_MOTION_DOT": -2.283e-05,
    "MEAN_MOTION_DDOT": 0
  },
  {
    "OBJECT_NAME": "STARLINK-31080",
    "OBJECT_ID": "2023-200Q",
    "EPOCH": "2025-05-24T13:43:24.821184",
    "MEAN_MOTION": 15.02524728,
    "ECCENTRICITY": 0.0001344,
    "INCLINATION": 43.0037,
    "RA_OF_ASC_NODE": 301.224,
    "ARG_OF_PERICENTER": 269.6782,
    "MEAN_ANOMALY": 90.3906,
    "EPHEMERIS_TYPE": 0,
    "CLASSIFICATION_TYPE": "U",
    "NORAD_CAT_ID": 58603,
    "ELEMENT_SET_NO": 999,
    "REV_AT_EPOCH": 7991,
    "BSTAR": 6.5515e-05,
    "MEAN_MOTION_DOT": 6.81e-06,
    "MEAN_MOTION_DDOT": 0
  },
  {
    "OBJECT_NAME": "STARLINK-31088",
    "OBJECT_ID": "2023-200R",
    "EPOCH": "2025-05-24T20:01:31.112832",
    "MEAN_MOTION": 15.0253513,
    "ECCENTRICITY": 0.0001224,
    "INCLINATION": 43.0045,
    "RA_OF_ASC_NODE": 299.7383,
    "ARG_OF_PERICENTER": 267.3642,
    "MEAN_ANOMALY": 92.706,
    "EPHEMERIS_TYPE": 0,
    "CLASSIFICATION_TYPE": "U",
    "NORAD_CAT_ID": 58604,
    "ELEMENT_SET_NO": 999,
    "REV_AT_EPOCH": 8016,
    "BSTAR": -6.4856e-05,
    "MEAN_MOTION_DOT": -1.08e-05,
    "MEAN_MOTION_DDOT": 0
  },
  {
    "OBJECT_NAME": "STARLINK-31038",
    "OBJECT_ID": "2023-200S",
    "EPOCH": "2025-05-24T11:53:17.920320",
    "MEAN_MOTION": 15.02531692,
    "ECCENTRICITY": 0.0001515,
    "INCLINATION": 43.0044,
    "RA_OF_ASC_NODE": 301.5091,
    "ARG_OF_PERICENTER": 251.6178,
    "MEAN_ANOMALY": 108.4499,
    "EPHEMERIS_TYPE": 0,
    "CLASSIFICATION_TYPE": "U",
    "NORAD_CAT_ID": 58605,
    "ELEMENT_SET_NO": 999,
    "REV_AT_EPOCH": 8009,
    "BSTAR": 0.00013926,
    "MEAN_MOTION_DOT": 1.678e-05,
    "MEAN_MOTION_DDOT": 0
  },
  {
    "OBJECT_NAME": "STARLINK-31082",
    "OBJECT_ID": "2023-200T",
    "EPOCH": "2025-05-24T18:21:00.309888",
    "MEAN_MOTION": 15.02535902,
    "ECCENTRICITY": 0.0001658,
    "INCLINATION": 43.0054,
    "RA_OF_ASC_NODE": 300.0865,
    "ARG_OF_PERICENTER": 258.1399,
    "MEAN_ANOMALY": 101.9258,
    "EPHEMERIS_TYPE": 0,
    "CLASSIFICATION_TYPE": "U",
    "NORAD_CAT_ID": 58606,
    "ELEMENT_SET_NO": 999,
    "REV_AT_EPOCH": 8015,
    "BSTAR": 6.3643e-05,
    "MEAN_MOTION_DOT": 6.56e-06,
    "MEAN_MOTION_DDOT": 0
  },
  {
    "OBJECT_NAME": "STARLINK-31069",
    "OBJECT_ID": "2023-200U",
    "EPOCH": "2025-05-24T19:47:08.713824",
    "MEAN_MOTION": 15.02543702,
    "ECCENTRICITY": 9.15e-05,
    "INCLINATION": 43.0032,
    "RA_OF_ASC_NODE": 299.6752,
    "ARG_OF_PERICENTER": 268.8266,
    "MEAN_ANOMALY": 91.2471,
    "EPHEMERIS_TYPE": 0,
    "CLASSIFICATION_TYPE": "U",
    "NORAD_CAT_ID": 58607,
    "ELEMENT_SET_NO": 999,
    "REV_AT_EPOCH": 8016,
    "BSTAR": 0.0001276,
    "MEAN_MOTION_DOT": 1.521e-05,
    "MEAN_MOTION_DDOT": 0
  },
  {
    "OBJECT_NAME": "STARLINK-31067",
    "OBJECT_ID": "2023-200V",
    "EPOCH": "2025-05-24T18:06:37.260288",
    "MEAN_MOTION": 15.02537858,
    "ECCENTRICITY": 0.0001185,
    "INCLINATION": 43.0033,
    "RA_OF_ASC_NODE": 300.0108,
    "ARG_OF_PERICENTER": 266.8212,
    "MEAN_ANOMALY": 93.2495,
    "EPHEMERIS_TYPE": 0,
    "CLASSIFICATION_TYPE": "U",
    "NORAD_CAT_ID": 58608,
    "ELEMENT_SET_NO": 999,
    "REV_AT_EPOCH": 8015,
    "BSTAR": 6.8817e-05,
    "MEAN_MOTION_DOT": 7.26e-06,
    "MEAN_MOTION_DDOT": 0
  },
  {
    "OBJECT_NAME": "STARLINK-31085",
    "OBJECT_ID": "2023-200W",
    "EPOCH": "2025-05-24T11:38:56.219424",
    "MEAN_MOTION": 15.0252736,
    "ECCENTRICITY": 0.000131,
    "INCLINATION": 43.0043,
    "RA_OF_ASC_NODE": 301.4319,
    "ARG_OF_PERICENTER": 263.3654,
    "MEAN_ANOMALY": 96.704,
    "EPHEMERIS_TYPE": 0,
    "CLASSIFICATION_TYPE": "U",
    "NORAD_CAT_ID": 58609,
    "ELEMENT_SET_NO": 999,
    "REV_AT_EPOCH": 8009,
    "BSTAR": 2.2678e-05,
    "MEAN_MOTION_DOT": 1.03e-06,
    "MEAN_MOTION_DDOT": 0
  }
]