STARLINK-30857          
1 58595U 23200G   25143.86053786  .00000658  00000+0  63798-4 0  9992
2 58595  43.0042 305.3486 0001404 267.7239  92.3442 15.02533473 79992
STARLINK-31059          
1 58596U 23200H   25144.43706264  .00002119  00000+0  86493-4 0  9994
2 58596  42.9997 205.6748 0001197 258.8642 101.2075 15.27581395 81214
STARLINK-31087          
1 58597U 23200J   25144.45217901  .00000182  00000+0  28509-4 0  9994
2 58597  43.0036 302.0442 0001123 263.5037  96.5678 15.02531920 79971
STARLINK-31079          
1 58598U 23200K   25144.77744835  .00008724  00000+0  64960-3 0  9991
2 58598  43.0019 300.1843 0002130 254.9311 105.1296 15.03141884 80168
STARLINK-31052          
1 58600U 23200M   25144.44551627  .00001116  00000+0  97681-4 0  9999
2 58600  43.0034 301.9933 0001447 244.4426 115.6266 15.02536202 80084
STARLINK-31074          
1 58601U 23200N   25143.84389107  .00000501  00000+0  52145-4 0  9998
2 58601  43.0051 305.2232 0001408 271.0539  89.0142 15.02533875 79999
STARLINK-31071          
1 58602U 23200P   25144.84465054 -.00002283  00000+0 -77444-4 0  9996
2 58602  43.0011 199.1922 0001279 271.8087  88.2617 15.25920586 81236
STARLINK-31080          
1 58603U 23200Q   25144.57181506  .00000681  00000+0  65515-4 0  9998
2 58603  43.0037 301.2240 0001344 269.6782  90.3906 15.02524728 79914
STARLINK-31088          
1 58604U 23200R   25144.83438788 -.00001080  00000+0 -64856-4 0  9998
2 58604  43.0045 299.7383 0001224 267.3642  92.7060 15.02535130 80165
STARLINK-31038          
1 58605U 23200S   25144.49534630  .00001678  00000+0  13926-3 0  9996
2 58605  43.0044 301.5091 0001515 251.6178 108.4499 15.02531692 80098
STARLINK-31082          
1 58606U 23200T   25144.76458692  .00000656  00000+0  63643-4 0  9997
2 58606  43.0054 300.0865 0001658 258.1399 101.9258 15.02535902 80154
STARLINK-31069          
1 58607U 23200U   25144.82440641  .00001521  00000+0  12760-3 0  9995
2 58607  43.0032 299.6752 0000915 268.8266  91.2471 15.02543702 80161
STARLINK-31067          
1 58608U 23200V   25144.75459792  .00000726  00000+0  68817-4 0  9996
2 58608  43.0033 300.0108 0001185 266.8212  93.2495 15.02537858 80156
STARLINK-31085          
1 58609U 23200W   25144.48537291  .00000103  00000+0  22678-4 0  9992
2 58609  43.0043 301.4319 0001310 263.3654  96.7040 15.02527360 80093
